{
  "norad_id": 66596,
  "name": "STARLINK-35811",
  "history": [
    {
      "epoch": "2026-04-14T14:20:01.976640Z",
      "apogee_km": 483.71989170896177,
      "perigee_km": 482.3449133606937,
      "latitude_deg": -3.926966373391688e-05,
      "longitude_deg": 155.94623772957627,
      "height_km": 482.72614589743597,
      "semi_major_axis_km": 6861.169402534827,
      "eccentricity": 0.0001002,
      "inclination_deg": 42.9989,
      "raan_deg": 213.7259,
      "arg_perigee_deg": 276.8926,
      "mean_anomaly_deg": 83.1811,
      "mean_motion_rev_day": 15.27585575
    },
    {
      "epoch": "2026-04-15T13:52:22.584288Z",
      "apogee_km": 483.82453290004105,
      "perigee_km": 482.1998127759125,
      "latitude_deg": -3.051787484430056e-05,
      "longitude_deg": 156.35576888316768,
      "height_km": 482.63295490936434,
      "semi_major_axis_km": 6861.149172837976,
      "eccentricity": 0.0001184,
      "inclination_deg": 43.0018,
      "raan_deg": 208.188,
      "arg_perigee_deg": 281.0674,
      "mean_anomaly_deg": 79.0044,
      "mean_motion_rev_day": 15.27592331
    },
    {
      "epoch": "2026-04-16T13:24:43.330176Z",
      "apogee_km": 483.83947703312515,
      "perigee_km": 482.2243578699563,
      "latitude_deg": 1.4264459684110986e-05,
      "longitude_deg": 156.75996101575595,
      "height_km": 482.7778704994506,
      "semi_major_axis_km": 6861.16891745154,
      "eccentricity": 0.0001177,
      "inclination_deg": 42.9987,
      "raan_deg": 202.6453,
      "arg_perigee_deg": 272.1586,
      "mean_anomaly_deg": 87.9131,
      "mean_motion_rev_day": 15.27585737
    },
    {
      "epoch": "2026-04-17T14:31:11.881632Z",
      "apogee_km": 484.0759026439255,
      "perigee_km": 481.75604341268445,
      "latitude_deg": -3.5657579371903434e-05,
      "longitude_deg": 133.20169882733748,
      "height_km": 482.4399042187544,
      "semi_major_axis_km": 6861.052973028305,
      "eccentricity": 0.00016906,
      "inclination_deg": 43.001,
      "raan_deg": 196.7372,
      "arg_perigee_deg": 282.6045,
      "mean_anomaly_deg": 77.4617,
      "mean_motion_rev_day": 15.27624459
    },
    {
      "epoch": "2026-04-18T12:29:23.892288Z",
      "apogee_km": 484.0219401294971,
      "perigee_km": 481.9594851390784,
      "latitude_deg": 2.2005782733379658e-05,
      "longitude_deg": 157.58004041205905,
      "height_km": 482.70659134143443,
      "semi_major_axis_km": 6861.1277126342875,
      "eccentricity": 0.0001503,
      "inclination_deg": 43.0011,
      "raan_deg": 191.5678,
      "arg_perigee_deg": 273.393,
      "mean_anomaly_deg": 86.675,
      "mean_motion_rev_day": 15.27599498
    },
    {
      "epoch": "2026-04-19T13:35:54.365280Z",
      "apogee_km": 483.99062176775715,
      "perigee_km": 482.0159855883576,
      "latitude_deg": 1.8716291042463338e-05,
      "longitude_deg": 134.01569738405098,
      "height_km": 482.7567087905156,
      "semi_major_axis_km": 6861.140303678057,
      "eccentricity": 0.0001439,
      "inclination_deg": 42.9989,
      "raan_deg": 185.6616,
      "arg_perigee_deg": 271.3468,
      "mean_anomaly_deg": 88.7219,
      "mean_motion_rev_day": 15.27595293
    },
    {
      "epoch": "2026-04-20T11:34:07.029984Z",
      "apogee_km": 484.12045090133233,
      "perigee_km": 482.0533013719296,
      "latitude_deg": -7.300747334609073e-06,
      "longitude_deg": 158.3896150042598,
      "height_km": 482.81750393484975,
      "semi_major_axis_km": 6861.223876136631,
      "eccentricity": 0.00015064,
      "inclination_deg": 42.9984,
      "raan_deg": 180.4906,
      "arg_perigee_deg": 272.5503,
      "mean_anomaly_deg": 87.5176,
      "mean_motion_rev_day": 15.27567383
    },
    {
      "epoch": "2026-04-21T20:31:25.041216Z",
      "apogee_km": 484.20142468051836,
      "perigee_km": 481.800026476566,
      "latitude_deg": 2.2889965133606983e-05,
      "longitude_deg": 14.956183132125515,
      "height_km": 482.5193954663866,
      "semi_major_axis_km": 6861.137725578542,
      "eccentricity": 0.000175,
      "inclination_deg": 42.9977,
      "raan_deg": 172.7356,
      "arg_perigee_deg": 282.411,
      "mean_anomaly_deg": 77.6546,
      "mean_motion_rev_day": 15.27596154
    }
  ]
}